start=new Date('2023-05-09T00:00:00.000Z').valueOf();
sats=[{"SEMIMAJOR_AXIS":"6925.420","COUNTRY_CODE":"US","CLASSIFICATION_TYPE":"U","EPHEMERIS_TYPE":"0","CENTER_NAME":"EARTH","OBJECT_TYPE":"PAYLOAD","EPOCH":"2023-05-08T15:10:52.002048","INCLINATION":"53.0537","MEAN_ANOMALY":"277.3974","LAUNCH_DATE":"2020-01-29","MEAN_ELEMENT_THEORY":"SGP4","TIME_SYSTEM":"UTC","ELEMENT_SET_NO":"999","TLE_LINE2":"2 45045  53.0537 257.6482 0001178  82.7148 277.3974 15.06376673180309","FILE":"3904305","MEAN_MOTION_DOT":"0.00025978","REF_FRAME":"TEME","PERIOD":"95.594","RCS_SIZE":"LARGE","GP_ID":"231470359","TLE_LINE1":"1 45045U 20006B   23128.63254632  .00025978  00000-0  17576-2 0  9992","PERIAPSIS":"546.469","DECAY_DATE":null,"APOAPSIS":"548.101","SITE":"AFETR","ARG_OF_PERICENTER":"82.7148","MEAN_MOTION":"15.06376673","NORAD_CAT_ID":"45045","REV_AT_EPOCH":"18030","OBJECT_ID":"2020-006B","OBJECT_NAME":"STARLINK-1120","RA_OF_ASC_NODE":"257.6482","BSTAR":"0.00175760000000","ECCENTRICITY":"0.00011780","MEAN_MOTION_DDOT":"0.0000000000000"},{"MEAN_MOTION_DDOT":"0.0000000000000","ECCENTRICITY":"0.00010560","BSTAR":"0.00097533000000","RA_OF_ASC_NODE":"257.9363","OBJECT_NAME":"STARLINK-1131","OBJECT_ID":"2020-006D","REV_AT_EPOCH":"18029","MEAN_MOTION":"15.06377306","NORAD_CAT_ID":"45047","ARG_OF_PERICENTER":"83.8352","SITE":"AFETR","APOAPSIS":"548.014","DECAY_DATE":null,"TLE_LINE1":"1 45047U 20006D   23128.57082599  .00014267  00000-0  97533-3 0  9999","PERIAPSIS":"546.552","GP_ID":"231470604","REF_FRAME":"TEME","PERIOD":"95.594","RCS_SIZE":"LARGE","MEAN_MOTION_DOT":"0.00014267","FILE":"3904305","TLE_LINE2":"2 45047  53.0537 257.9363 0001056  83.8352 276.2757 15.06377306180295","LAUNCH_DATE":"2020-01-29","TIME_SYSTEM":"UTC","MEAN_ELEMENT_THEORY":"SGP4","MEAN_ANOMALY":"276.2757","ELEMENT_SET_NO":"999","INCLINATION":"53.0537","EPOCH":"2023-05-08T13:41:59.365536","OBJECT_TYPE":"PAYLOAD","CENTER_NAME":"EARTH","EPHEMERIS_TYPE":"0","COUNTRY_CODE":"US","CLASSIFICATION_TYPE":"U","SEMIMAJOR_AXIS":"6925.418"},{"TLE_LINE2":"2 45048  53.0540 257.9029 0001283 114.6899 245.4224 15.06406414180290","LAUNCH_DATE":"2020-01-29","MEAN_ELEMENT_THEORY":"SGP4","MEAN_ANOMALY":"245.4224","TIME_SYSTEM":"UTC","ELEMENT_SET_NO":"999","MEAN_MOTION_DOT":"0.00023458","FILE":"3904305","CENTER_NAME":"EARTH","EPHEMERIS_TYPE":"0","COUNTRY_CODE":"US","CLASSIFICATION_TYPE":"U","SEMIMAJOR_AXIS":"6925.329","INCLINATION":"53.0540","EPOCH":"2023-05-08T13:52:36.338304","OBJECT_TYPE":"PAYLOAD","ECCENTRICITY":"0.00012830","BSTAR":"0.00158820000000","OBJECT_NAME":"STARLINK-1134","RA_OF_ASC_NODE":"257.9029","MEAN_MOTION_DDOT":"0.0000000000000","APOAPSIS":"548.082","DECAY_DATE":null,"PERIAPSIS":"546.305","TLE_LINE1":"1 45048U 20006E   23128.57819836  .00023458  00000-0  15882-2 0  9990","GP_ID":"231471359","REF_FRAME":"TEME","RCS_SIZE":"LARGE","PERIOD":"95.592","OBJECT_ID":"2020-006E","REV_AT_EPOCH":"18029","MEAN_MOTION":"15.06406414","NORAD_CAT_ID":"45048","SITE":"AFETR","ARG_OF_PERICENTER":"114.6899"},{"MEAN_MOTION_DOT":"0.00007124","FILE":"3904305","TLE_LINE2":"2 45049  53.0688 237.0713 0003558 152.0634 208.0553 15.22158170180597","LAUNCH_DATE":"2020-01-29","TIME_SYSTEM":"UTC","MEAN_ELEMENT_THEORY":"SGP4","MEAN_ANOMALY":"208.0553","ELEMENT_SET_NO":"999","EPOCH":"2023-05-08T14:01:34.624128","INCLINATION":"53.0688","OBJECT_TYPE":"PAYLOAD","CENTER_NAME":"EARTH","EPHEMERIS_TYPE":"0","CLASSIFICATION_TYPE":"U","COUNTRY_CODE":"US","SEMIMAJOR_AXIS":"6877.469","MEAN_MOTION_DDOT":"0.0000000000000","ECCENTRICITY":"0.00035580","BSTAR":"0.00032054000000","OBJECT_NAME":"STARLINK-1135","RA_OF_ASC_NODE":"237.0713","OBJECT_ID":"2020-006F","REV_AT_EPOCH":"18059","NORAD_CAT_ID":"45049","MEAN_MOTION":"15.22158170","SITE":"AFETR","ARG_OF_PERICENTER":"152.0634","APOAPSIS":"501.781","DECAY_DATE":null,"TLE_LINE1":"1 45049U 20006F   23128.58442852  .00007124  00000-0  32054-3 0  9995","GP_ID":"231472107","PERIAPSIS":"496.887","PERIOD":"94.603","RCS_SIZE":"LARGE","REF_FRAME":"TEME"},{"TLE_LINE2":"2 45050  53.0531 257.2541 0001341  80.0593 280.0547 15.06407787180317","LAUNCH_DATE":"2020-01-29","MEAN_ANOMALY":"280.0547","MEAN_ELEMENT_THEORY":"SGP4","TIME_SYSTEM":"UTC","ELEMENT_SET_NO":"999","MEAN_MOTION_DOT":"0.00009393","FILE":"3904305","CENTER_NAME":"EARTH","EPHEMERIS_TYPE":"0","COUNTRY_CODE":"US","CLASSIFICATION_TYPE":"U","SEMIMAJOR_AXIS":"6925.325","INCLINATION":"53.0531","EPOCH":"2023-05-08T17:19:37.491744","OBJECT_TYPE":"PAYLOAD","ECCENTRICITY":"0.00013410","BSTAR":"0.00064851000000","RA_OF_ASC_NODE":"257.2541","OBJECT_NAME":"STARLINK-1140","MEAN_MOTION_DDOT":"0.0000000000000","APOAPSIS":"548.118","DECAY_DATE":null,"TLE_LINE1":"1 45050U 20006G   23128.72196171  .00009393  00000-0  64851-3 0  9993","PERIAPSIS":"546.261","GP_ID":"231470859","REF_FRAME":"TEME","PERIOD":"95.592","RCS_SIZE":"LARGE","OBJECT_ID":"2020-006G","REV_AT_EPOCH":"18031","MEAN_MOTION":"15.06407787","NORAD_CAT_ID":"45050","SITE":"AFETR","ARG_OF_PERICENTER":"80.0593"},{"SEMIMAJOR_AXIS":"6754.291","CLASSIFICATION_TYPE":"U","COUNTRY_CODE":"US","EPHEMERIS_TYPE":"0","CENTER_NAME":"EARTH","OBJECT_TYPE":"PAYLOAD","INCLINATION":"53.0471","EPOCH":"2023-05-08T14:42:13.608864","MEAN_ELEMENT_THEORY":"SGP4","LAUNCH_DATE":"2020-01-29","TIME_SYSTEM":"UTC","MEAN_ANOMALY":"14.8908","ELEMENT_SET_NO":"999","TLE_LINE2":"2 45051  53.0471 212.3287 0015922 345.1637  14.8908 15.63986766180949","FILE":"3904305","MEAN_MOTION_DOT":"0.00484171","RCS_SIZE":"LARGE","PERIOD":"92.072","REF_FRAME":"TEME","GP_ID":"231471104","TLE_LINE1":"1 45051U 20006H   23128.61265751  .00484171  00000-0  47293-2 0  9994","PERIAPSIS":"365.402","DECAY_DATE":null,"APOAPSIS":"386.911","ARG_OF_PERICENTER":"345.1637","SITE":"AFETR","NORAD_CAT_ID":"45051","MEAN_MOTION":"15.63986766","REV_AT_EPOCH":"18094","OBJECT_ID":"2020-006H","RA_OF_ASC_NODE":"212.3287","OBJECT_NAME":"STARLINK-1141","BSTAR":"0.00472930000000","ECCENTRICITY":"0.00159220","MEAN_MOTION_DDOT":"0.0000000000000"},{"EPOCH":"2023-05-08T14:19:09.207840","INCLINATION":"53.0532","OBJECT_TYPE":"PAYLOAD","EPHEMERIS_TYPE":"0","CENTER_NAME":"EARTH","SEMIMAJOR_AXIS":"6925.429","COUNTRY_CODE":"US","CLASSIFICATION_TYPE":"U","FILE":"3904305","MEAN_MOTION_DOT":"0.00016889","TLE_LINE2":"2 45052  53.0532 257.8214 0001243  79.2437 280.8692 15.06373671180291","MEAN_ANOMALY":"280.8692","LAUNCH_DATE":"2020-01-29","TIME_SYSTEM":"UTC","MEAN_ELEMENT_THEORY":"SGP4","ELEMENT_SET_NO":"999","REV_AT_EPOCH":"18029","OBJECT_ID":"2020-006J","SITE":"AFETR","ARG_OF_PERICENTER":"79.2437","MEAN_MOTION":"15.06373671","NORAD_CAT_ID":"45052","DECAY_DATE":null,"APOAPSIS":"548.155","REF_FRAME":"TEME","RCS_SIZE":"LARGE","PERIOD":"95.594","TLE_LINE1":"1 45052U 20006J   23128.59663435  .00016889  00000-0  11508-2 0  9990","GP_ID":"231471860","PERIAPSIS":"546.433","MEAN_MOTION_DDOT":"0.0000000000000","BSTAR":"0.00115080000000","ECCENTRICITY":"0.00012430","OBJECT_NAME":"STARLINK-1148","RA_OF_ASC_NODE":"257.8214"},{"OBJECT_NAME":"STARLINK-1155","RA_OF_ASC_NODE":"215.4639","ECCENTRICITY":"0.00039750","BSTAR":"0.00045600000000","MEAN_MOTION_DDOT":"0.0000000000000","GP_ID":"231471607","TLE_LINE1":"1 45053U 20006K   23128.55975845  .00013755  00000-0  45600-3 0  9998","PERIAPSIS":"468.420","PERIOD":"94.021","RCS_SIZE":"LARGE","REF_FRAME":"TEME","APOAPSIS":"473.866","DECAY_DATE":null,"NORAD_CAT_ID":"45053","MEAN_MOTION":"15.31565498","ARG_OF_PERICENTER":"183.8828","SITE":"AFETR","OBJECT_ID":"2020-006K","REV_AT_EPOCH":"18083","MEAN_ANOMALY":"176.2141","LAUNCH_DATE":"2020-01-29","TIME_SYSTEM":"UTC","MEAN_ELEMENT_THEORY":"SGP4","ELEMENT_SET_NO":"999","TLE_LINE2":"2 45053  52.9895 215.4639 0003975 183.8828 176.2141 15.31565498180838","MEAN_MOTION_DOT":"0.00013755","FILE":"3904305","CLASSIFICATION_TYPE":"U","COUNTRY_CODE":"US","SEMIMAJOR_AXIS":"6849.278","CENTER_NAME":"EARTH","EPHEMERIS_TYPE":"0","OBJECT_TYPE":"PAYLOAD","EPOCH":"2023-05-08T13:26:03.130080","INCLINATION":"52.9895"},{"REV_AT_EPOCH":"18029","OBJECT_ID":"2020-006L","SITE":"AFETR","ARG_OF_PERICENTER":"78.6950","NORAD_CAT_ID":"45054","MEAN_MOTION":"15.06375493","DECAY_DATE":null,"APOAPSIS":"548.123","RCS_SIZE":"LARGE","PERIOD":"95.594","REF_FRAME":"TEME","GP_ID":"231470360","TLE_LINE1":"1 45054U 20006L   23128.59294843  .00016187  00000-0  11038-2 0  9994","PERIAPSIS":"546.454","MEAN_MOTION_DDOT":"0.0000000000000","BSTAR":"0.00110380000000","ECCENTRICITY":"0.00012050","OBJECT_NAME":"STARLINK-1156","RA_OF_ASC_NODE":"257.8332","INCLINATION":"53.0538","EPOCH":"2023-05-08T14:13:50.744352","OBJECT_TYPE":"PAYLOAD","EPHEMERIS_TYPE":"0","CENTER_NAME":"EARTH","SEMIMAJOR_AXIS":"6925.424","CLASSIFICATION_TYPE":"U","COUNTRY_CODE":"US","FILE":"3904305","MEAN_MOTION_DOT":"0.00016187","TLE_LINE2":"2 45054  53.0538 257.8332 0001205  78.6950 281.4174 15.06375493180297","MEAN_ANOMALY":"281.4174","LAUNCH_DATE":"2020-01-29","MEAN_ELEMENT_THEORY":"SGP4","TIME_SYSTEM":"UTC","ELEMENT_SET_NO":"999"},{"CENTER_NAME":"EARTH","EPHEMERIS_TYPE":"0","CLASSIFICATION_TYPE":"U","COUNTRY_CODE":"US","SEMIMAJOR_AXIS":"6925.453","EPOCH":"2023-05-08T16:10:36.975648","INCLINATION":"53.0533","OBJECT_TYPE":"PAYLOAD","TLE_LINE2":"2 45057  53.0533 257.4734 0001243  80.4590 279.6539 15.06365835180316","MEAN_ANOMALY":"279.6539","LAUNCH_DATE":"2020-01-29","MEAN_ELEMENT_THEORY":"SGP4","TIME_SYSTEM":"UTC","ELEMENT_SET_NO":"999","MEAN_MOTION_DOT":"0.00026339","FILE":"3904305","APOAPSIS":"548.179","DECAY_DATE":null,"TLE_LINE1":"1 45057U 20006P   23128.67403907  .00026339  00000-0  17822-2 0  9996","PERIAPSIS":"546.457","GP_ID":"231470605","PERIOD":"95.594","RCS_SIZE":"LARGE","REF_FRAME":"TEME","OBJECT_ID":"2020-006P","REV_AT_EPOCH":"18031","NORAD_CAT_ID":"45057","MEAN_MOTION":"15.06365835","SITE":"AFETR","ARG_OF_PERICENTER":"80.4590","ECCENTRICITY":"0.00012430","BSTAR":"0.00178220000000","RA_OF_ASC_NODE":"257.4734","OBJECT_NAME":"STARLINK-1159","MEAN_MOTION_DDOT":"0.0000000000000"}];
